{
  "type": "FeatureCollection",
  "features": [
    {
      "type": "Feature",
      "properties": {
        "norad_id": 40010,
        "name": "KAZEOSAT 2",
        "group": "resource",
        "lat": 2.6482805945323507,
        "lon": 16.823037238806446,
        "alt_km": 610.1682421318937,
        "timestamp": "2025-12-18T10:51:25.446239+00:00",
        "meta_object_name": "KAZEOSAT 2",
        "meta_object_id": "2014-033A",
        "meta_epoch": "2025-12-17T22:44:34.098432",
        "meta_mean_motion": 14.85179478,
        "meta_eccentricity": 0.00080212,
        "meta_inclination": 97.5504,
        "meta_ra_of_asc_node": 195.993,
        "meta_arg_of_pericenter": 188.0703,
        "meta_mean_anomaly": 172.0385,
        "meta_ephemeris_type": 0,
        "meta_classification_type": "U",
        "meta_norad_cat_id": 40010,
        "meta_element_set_no": 999,
        "meta_rev_at_epoch": 62205,
        "meta_bstar": 0.00014316092,
        "meta_mean_motion_dot": 1.177e-05,
        "meta_mean_motion_ddot": 0,
        "tle_line1": "1 40010U 14033A   25351.94761688  .00001177  00000+0  14316-3 0  9994",
        "tle_line2": "2 40010  97.5504 195.9930 0008021 188.0703 172.0385 14.85179478622056"
      },
      "geometry": {
        "type": "Point",
        "coordinates": [
          16.823037238806446,
          2.6482805945323507
        ]
      }
    },
    {
      "type": "Feature",
      "properties": {
        "norad_id": 40011,
        "name": "HODOYOSHI-4",
        "group": "resource",
        "lat": -46.743329917288946,
        "lon": -170.85255319389512,
        "alt_km": 623.3869924112587,
        "timestamp": "2025-12-18T10:51:25.446250+00:00",
        "meta_object_name": "HODOYOSHI-4",
        "meta_object_id": "2014-033B",
        "meta_epoch": "2025-12-17T23:46:08.300640",
        "meta_mean_motion": 14.87499448,
        "meta_eccentricity": 0.00234898,
        "meta_inclination": 97.541,
        "meta_ra_of_asc_node": 180.615,
        "meta_arg_of_pericenter": 183.0039,
        "meta_mean_anomaly": 177.1041,
        "meta_ephemeris_type": 0,
        "meta_classification_type": "U",
        "meta_norad_cat_id": 40011,
        "meta_element_set_no": 999,
        "meta_rev_at_epoch": 62186,
        "meta_bstar": 0.00011722353,
        "meta_mean_motion_dot": 1.016e-05,
        "meta_mean_motion_ddot": 0,
        "tle_line1": "1 40011U 14033B   25351.99037385  .00001016  00000+0  11722-3 0  9990",
        "tle_line2": "2 40011  97.5410 180.6150 0023489 183.0039 177.1041 14.87499448621867"
      },
      "geometry": {
        "type": "Point",
        "coordinates": [
          -170.85255319389512,
          -46.743329917288946
        ]
      }
    },
    {
      "type": "Feature",
      "properties": {
        "norad_id": 40013,
        "name": "DEIMOS-2",
        "group": "resource",
        "lat": -42.29409216286575,
        "lon": 41.08059327189855,
        "alt_km": 595.620319413104,
        "timestamp": "2025-12-18T10:51:25.446260+00:00",
        "meta_object_name": "DEIMOS-2",
        "meta_object_id": "2014-033D",
        "meta_epoch": "2025-12-17T22:36:11.958048",
        "meta_mean_motion": 14.92994863,
        "meta_eccentricity": 0.00011989,
        "meta_inclination": 97.6064,
        "meta_ra_of_asc_node": 227.5698,
        "meta_arg_of_pericenter": 108.1354,
        "meta_mean_anomaly": 251.9997,
        "meta_ephemeris_type": 0,
        "meta_classification_type": "U",
        "meta_norad_cat_id": 40013,
        "meta_element_set_no": 999,
        "meta_rev_at_epoch": 61067,
        "meta_bstar": 0.00021540314,
        "meta_mean_motion_dot": 2.184e-05,
        "meta_mean_motion_ddot": 0,
        "tle_line1": "1 40013U 14033D   25351.94180507  .00002184  00000+0  21540-3 0  9998",
        "tle_line2": "2 40013  97.6064 227.5698 0001198 108.1354 251.9997 14.92994863610679"
      },
      "geometry": {
        "type": "Point",
        "coordinates": [
          41.08059327189855,
          -42.29409216286575
        ]
      }
    },
    {
      "type": "Feature",
      "properties": {
        "norad_id": 40015,
        "name": "HODOYOSHI-3",
        "group": "resource",
        "lat": -2.9182205615484382,
        "lon": -22.352171558305326,
        "alt_km": 601.8200170536793,
        "timestamp": "2025-12-18T10:51:25.446271+00:00",
        "meta_object_name": "HODOYOSHI-3",
        "meta_object_id": "2014-033F",
        "meta_epoch": "2025-12-17T19:28:39.610848",
        "meta_mean_motion": 14.84824142,
        "meta_eccentricity": 0.00320942,
        "meta_inclination": 97.6202,
        "meta_ra_of_asc_node": 157.4261,
        "meta_arg_of_pericenter": 230.602,
        "meta_mean_anomaly": 129.2353,
        "meta_ephemeris_type": 0,
        "meta_classification_type": "U",
        "meta_norad_cat_id": 40015,
        "meta_element_set_no": 999,
        "meta_rev_at_epoch": 62070,
        "meta_bstar": 0.00017047758,
        "meta_mean_motion_dot": 1.408e-05,
        "meta_mean_motion_ddot": 0,
        "tle_line1": "1 40015U 14033F   25351.81156957  .00001408  00000+0  17048-3 0  9994",
        "tle_line2": "2 40015  97.6202 157.4261 0032094 230.6020 129.2353 14.84824142620703"
      },
      "geometry": {
        "type": "Point",
        "coordinates": [
          -22.352171558305326,
          -2.9182205615484382
        ]
      }
    },
    {
      "type": "Feature",
      "properties": {
        "norad_id": 40053,
        "name": "SPOT 7",
        "group": "resource",
        "lat": 47.73462034865071,
        "lon": -116.59870659224988,
        "alt_km": 685.815010379938,
        "timestamp": "2025-12-18T10:51:25.446282+00:00",
        "meta_object_name": "SPOT 7",
        "meta_object_id": "2014-034A",
        "meta_epoch": "2025-12-17T22:44:56.891616",
        "meta_mean_motion": 14.60740173,
        "meta_eccentricity": 0.00015487,
        "meta_inclination": 98.0906,
        "meta_ra_of_asc_node": 53.9036,
        "meta_arg_of_pericenter": 84.1615,
        "meta_mean_anomaly": 275.9762,
        "meta_ephemeris_type": 0,
        "meta_classification_type": "U",
        "meta_norad_cat_id": 40053,
        "meta_element_set_no": 999,
        "meta_rev_at_epoch": 61067,
        "meta_bstar": 8.7836429e-05,
        "meta_mean_motion_dot": 3.83e-06,
        "meta_mean_motion_ddot": 0,
        "tle_line1": "1 40053U 14034A   25351.94788069  .00000383  00000+0  87836-4 0  9990",
        "tle_line2": "2 40053  98.0906  53.9036 0001548  84.1615 275.9762 14.60740173610676"
      },
      "geometry": {
        "type": "Point",
        "coordinates": [
          -116.59870659224988,
          47.73462034865071
        ]
      }
    },
    {
      "type": "Feature",
      "properties": {
        "norad_id": 40072,
        "name": "SKYSAT-B",
        "group": "resource",
        "lat": -71.15628667367874,
        "lon": 90.930467635224,
        "alt_km": 615.727400588531,
        "timestamp": "2025-12-18T10:51:25.446292+00:00",
        "meta_object_name": "SKYSAT-B",
        "meta_object_id": "2014-037D",
        "meta_epoch": "2025-12-17T17:34:38.874432",
        "meta_mean_motion": 14.87344985,
        "meta_eccentricity": 0.00064543,
        "meta_inclination": 98.3617,
        "meta_ra_of_asc_node": 295.7021,
        "meta_arg_of_pericenter": 135.8528,
        "meta_mean_anomaly": 224.3203,
        "meta_ephemeris_type": 0,
        "meta_classification_type": "U",
        "meta_norad_cat_id": 40072,
        "meta_element_set_no": 999,
        "meta_rev_at_epoch": 61898,
        "meta_bstar": 0.0001643046,
        "meta_mean_motion_dot": 1.423e-05,
        "meta_mean_motion_ddot": 0,
        "tle_line1": "1 40072U 14037D   25351.73239438  .00001423  00000+0  16430-3 0  9999",
        "tle_line2": "2 40072  98.3617 295.7021 0006454 135.8528 224.3203 14.87344985618987"
      },
      "geometry": {
        "type": "Point",
        "coordinates": [
          90.930467635224,
          -71.15628667367874
        ]
      }
    },
    {
      "type": "Feature",
      "properties": {
        "norad_id": 40115,
        "name": "WORLDVIEW-3 (WV-3)",
        "group": "resource",
        "lat": 72.1215349031579,
        "lon": -89.97850027984656,
        "alt_km": 603.2064393196824,
        "timestamp": "2025-12-18T10:51:25.446302+00:00",
        "meta_object_name": "WORLDVIEW-3 (WV-3)",
        "meta_object_id": "2014-048A",
        "meta_epoch": "2025-12-17T19:49:54.747840",
        "meta_mean_motion": 14.85524143,
        "meta_eccentricity": 0.00051758,
        "meta_inclination": 97.8612,
        "meta_ra_of_asc_node": 64.0426,
        "meta_arg_of_pericenter": 168.4648,
        "meta_mean_anomaly": 191.6687,
        "meta_ephemeris_type": 0,
        "meta_classification_type": "U",
        "meta_norad_cat_id": 40115,
        "meta_element_set_no": 999,
        "meta_rev_at_epoch": 61499,
        "meta_bstar": 0.00011308968,
        "meta_mean_motion_dot": 9.23e-06,
        "meta_mean_motion_ddot": 0,
        "tle_line1": "1 40115U 14048A   25351.82632810  .00000923  00000+0  11309-3 0  9994",
        "tle_line2": "2 40115  97.8612  64.0426 0005175 168.4648 191.6687 14.85524143614997"
      },
      "geometry": {
        "type": "Point",
        "coordinates": [
          -89.97850027984656,
          72.1215349031579
        ]
      }
    }
  ]
}